NESS                    
1 58020U 23155E   26068.76452457  .00019469  00000+0  74047-3 0  9996
2 58020  97.5941 152.6141 0006891 179.8776 180.2465 15.26794015133307
STARLINK-36094          
1 66851U 25281D   26068.14752402  .00039027  00000+0  14207-2 0  9997
2 66851  43.0032 346.4497 0001549 260.6256  99.4420 15.27569557 16101
